CCSDS_OMM_VERS = 2.0
CREATION_DATE  = 
ORIGINATOR     = 

OBJECT_NAME    = HULIANWANG DIGUI-136
OBJECT_ID      = 2025-311J
CENTER_NAME    = EARTH
REF_FRAME      = TEME
TIME_SYSTEM    = UTC
MEAN_ELEMENT_THEORY = SGP/SGP4

EPOCH          = 2026-01-19T12:31:24.282912
MEAN_MOTION    = 13.87669700
ECCENTRICITY   = .00004531
INCLINATION    = 50.0106
RA_OF_ASC_NODE = 298.0118
ARG_OF_PERICENTER = 348.0623
MEAN_ANOMALY   = 12.0264

EPHEMERIS_TYPE = 0
CLASSIFICATION_TYPE = U
NORAD_CAT_ID   = 67244
ELEMENT_SET_NO = 999
REV_AT_EPOCH   = 342
BSTAR          = .13236406E-3
MEAN_MOTION_DOT = .12E-6
MEAN_MOTION_DDOT = 0

CCSDS_OMM_VERS = 2.0
CREATION_DATE  = 
ORIGINATOR     = 

OBJECT_NAME    = CZ-8A R/B
OBJECT_ID      = 2025-311K
CENTER_NAME    = EARTH
REF_FRAME      = TEME
TIME_SYSTEM    = UTC
MEAN_ELEMENT_THEORY = SGP/SGP4

EPOCH          = 2026-01-22T23:09:59.874912
MEAN_MOTION    = 14.12608667
ECCENTRICITY   = .0088973
INCLINATION    = 50.0030
RA_OF_ASC_NODE = 280.1958
ARG_OF_PERICENTER = 178.3968
MEAN_ANOMALY   = 181.7242

EPHEMERIS_TYPE = 0
CLASSIFICATION_TYPE = U
NORAD_CAT_ID   = 67245
ELEMENT_SET_NO = 999
REV_AT_EPOCH   = 396
BSTAR          = .16295488E-3
MEAN_MOTION_DOT = .16E-5
MEAN_MOTION_DDOT = 0

CCSDS_OMM_VERS = 2.0
CREATION_DATE  = 
ORIGINATOR     = 

OBJECT_NAME    = FENGYUN 4C
OBJECT_ID      = 2025-312A
CENTER_NAME    = EARTH
REF_FRAME      = TEME
TIME_SYSTEM    = UTC
MEAN_ELEMENT_THEORY = SGP/SGP4

EPOCH          = 2026-01-22T21:19:06.821760
MEAN_MOTION    = 1.00271451
ECCENTRICITY   = .00020596
INCLINATION    = 0.0556
RA_OF_ASC_NODE = 240.9296
ARG_OF_PERICENTER = 49.7282
MEAN_ANOMALY   = 284.2914

EPHEMERIS_TYPE = 0
CLASSIFICATION_TYPE = U
NORAD_CAT_ID   = 67246
ELEMENT_SET_NO = 999
REV_AT_EPOCH   = 32
BSTAR          = 0
MEAN_MOTION_DOT = -.308E-5
MEAN_MOTION_DDOT = 0

CCSDS_OMM_VERS = 2.0
CREATION_DATE  = 
ORIGINATOR     = 

OBJECT_NAME    = CZ-3B R/B
OBJECT_ID      = 2025-312B
CENTER_NAME    = EARTH
REF_FRAME      = TEME
TIME_SYSTEM    = UTC
MEAN_ELEMENT_THEORY = SGP/SGP4

EPOCH          = 2026-01-22T06:03:35.757216
MEAN_MOTION    = 2.47467165
ECCENTRICITY   = .71811278
INCLINATION    = 28.3909
RA_OF_ASC_NODE = 323.6604
ARG_OF_PERICENTER = 196.3319
MEAN_ANOMALY   = 115.3056

EPHEMERIS_TYPE = 0
CLASSIFICATION_TYPE = U
NORAD_CAT_ID   = 67247
ELEMENT_SET_NO = 999
REV_AT_EPOCH   = 64
BSTAR          = .9366052E-3
MEAN_MOTION_DOT = .400967E-2
MEAN_MOTION_DDOT = .1196206E-5

CCSDS_OMM_VERS = 2.0
CREATION_DATE  = 
ORIGINATOR     = 

OBJECT_NAME    = 2025-313A
OBJECT_ID      = 2025-313A
CENTER_NAME    = EARTH
REF_FRAME      = TEME
TIME_SYSTEM    = UTC
MEAN_ELEMENT_THEORY = SGP/SGP4

EPOCH          = 2026-01-22T23:38:54.341952
MEAN_MOTION    = 14.66831807
ECCENTRICITY   = .02805332
INCLINATION    = 97.5613
RA_OF_ASC_NODE = 98.5576
ARG_OF_PERICENTER = 83.2482
MEAN_ANOMALY   = 280.0559

EPHEMERIS_TYPE = 0
CLASSIFICATION_TYPE = U
NORAD_CAT_ID   = 67248
ELEMENT_SET_NO = 999
REV_AT_EPOCH   = 373
BSTAR          = .25512411E-3
MEAN_MOTION_DOT = .2526E-4
MEAN_MOTION_DDOT = 0

CCSDS_OMM_VERS = 2.0
CREATION_DATE  = 
ORIGINATOR     = 

OBJECT_NAME    = 2025-313B
OBJECT_ID      = 2025-313B
CENTER_NAME    = EARTH
REF_FRAME      = TEME
TIME_SYSTEM    = UTC
MEAN_ELEMENT_THEORY = SGP/SGP4

EPOCH          = 2026-01-22T22:39:50.429952
MEAN_MOTION    = 14.73277254
ECCENTRICITY   = .02976194
INCLINATION    = 97.5301
RA_OF_ASC_NODE = 98.6507
ARG_OF_PERICENTER = 87.2964
MEAN_ANOMALY   = 276.2269

EPHEMERIS_TYPE = 0
CLASSIFICATION_TYPE = U
NORAD_CAT_ID   = 67249
ELEMENT_SET_NO = 999
REV_AT_EPOCH   = 374
BSTAR          = .35656702E-3
MEAN_MOTION_DOT = .4658E-4
MEAN_MOTION_DDOT = 0

CCSDS_OMM_VERS = 2.0
CREATION_DATE  = 
ORIGINATOR     = 

OBJECT_NAME    = 2025-313C
OBJECT_ID      = 2025-313C
CENTER_NAME    = EARTH
REF_FRAME      = TEME
TIME_SYSTEM    = UTC
MEAN_ELEMENT_THEORY = SGP/SGP4

EPOCH          = 2026-01-22T22:52:44.468544
MEAN_MOTION    = 14.85040579
ECCENTRICITY   = .01621366
INCLINATION    = 97.6340
RA_OF_ASC_NODE = 99.4214
ARG_OF_PERICENTER = 96.9026
MEAN_ANOMALY   = 265.0664

EPHEMERIS_TYPE = 0
CLASSIFICATION_TYPE = U
NORAD_CAT_ID   = 67250
ELEMENT_SET_NO = 999
REV_AT_EPOCH   = 377
BSTAR          = .16721827E-2
MEAN_MOTION_DOT = .18068E-3
MEAN_MOTION_DDOT = 0

CCSDS_OMM_VERS = 2.0
CREATION_DATE  = 
ORIGINATOR     = 

OBJECT_NAME    = 2025-313D
OBJECT_ID      = 2025-313D
CENTER_NAME    = EARTH
REF_FRAME      = TEME
TIME_SYSTEM    = UTC
MEAN_ELEMENT_THEORY = SGP/SGP4

EPOCH          = 2026-01-22T22:46:32.225376
MEAN_MOTION    = 14.88812805
ECCENTRICITY   = .0152395
INCLINATION    = 97.5856
RA_OF_ASC_NODE = 99.4042
ARG_OF_PERICENTER = 89.4951
MEAN_ANOMALY   = 272.3727

EPHEMERIS_TYPE = 0
CLASSIFICATION_TYPE = U
NORAD_CAT_ID   = 67251
ELEMENT_SET_NO = 999
REV_AT_EPOCH   = 378
BSTAR          = .38435952E-3
MEAN_MOTION_DOT = .4414E-4
MEAN_MOTION_DDOT = 0

CCSDS_OMM_VERS = 2.0
CREATION_DATE  = 
ORIGINATOR     = 

OBJECT_NAME    = ZORKIY-2M-VPE
OBJECT_ID      = 2025-313E
CENTER_NAME    = EARTH
REF_FRAME      = TEME
TIME_SYSTEM    = UTC
MEAN_ELEMENT_THEORY = SGP/SGP4

EPOCH          = 2026-01-22T22:19:38.633664
MEAN_MOTION    = 15.21831256
ECCENTRICITY   = .00116135
INCLINATION    = 97.4095
RA_OF_ASC_NODE = 100.0090
ARG_OF_PERICENTER = 131.0800
MEAN_ANOMALY   = 229.1441

EPHEMERIS_TYPE = 0
CLASSIFICATION_TYPE = U
NORAD_CAT_ID   = 67252
ELEMENT_SET_NO = 999
REV_AT_EPOCH   = 386
BSTAR          = .40757357E-3
MEAN_MOTION_DOT = .9211E-4
MEAN_MOTION_DDOT = 0

CCSDS_OMM_VERS = 2.0
CREATION_DATE  = 
ORIGINATOR     = 

OBJECT_NAME    = AIST-2T 1
OBJECT_ID      = 2025-313F
CENTER_NAME    = EARTH
REF_FRAME      = TEME
TIME_SYSTEM    = UTC
MEAN_ELEMENT_THEORY = SGP/SGP4

EPOCH          = 2026-01-22T22:31:03.840960
MEAN_MOTION    = 15.66183629
ECCENTRICITY   = .00105594
INCLINATION    = 97.1011
RA_OF_ASC_NODE = 100.3354
ARG_OF_PERICENTER = 147.5410
MEAN_ANOMALY   = 212.6502

EPHEMERIS_TYPE = 0
CLASSIFICATION_TYPE = U
NORAD_CAT_ID   = 67253
ELEMENT_SET_NO = 999
REV_AT_EPOCH   = 395
BSTAR          = .59219897E-3
MEAN_MOTION_DOT = .61255E-3
MEAN_MOTION_DDOT = 0

CCSDS_OMM_VERS = 2.0
CREATION_DATE  = 
ORIGINATOR     = 

OBJECT_NAME    = AIST-2T 2
OBJECT_ID      = 2025-313G
CENTER_NAME    = EARTH
REF_FRAME      = TEME
TIME_SYSTEM    = UTC
MEAN_ELEMENT_THEORY = SGP/SGP4

EPOCH          = 2026-01-22T21:04:39.476352
MEAN_MOTION    = 15.64735275
ECCENTRICITY   = .00088561
INCLINATION    = 97.1008
RA_OF_ASC_NODE = 100.2655
ARG_OF_PERICENTER = 169.2638
MEAN_ANOMALY   = 190.8813

EPHEMERIS_TYPE = 0
CLASSIFICATION_TYPE = U
NORAD_CAT_ID   = 67254
ELEMENT_SET_NO = 999
REV_AT_EPOCH   = 393
BSTAR          = .35588288E-3
MEAN_MOTION_DOT = .34568E-3
MEAN_MOTION_DDOT = 0

CCSDS_OMM_VERS = 2.0
CREATION_DATE  = 
ORIGINATOR     = 

OBJECT_NAME    = 2025-313H
OBJECT_ID      = 2025-313H
CENTER_NAME    = EARTH
REF_FRAME      = TEME
TIME_SYSTEM    = UTC
MEAN_ELEMENT_THEORY = SGP/SGP4

EPOCH          = 2026-01-22T22:09:07.967232
MEAN_MOTION    = 15.02229010
ECCENTRICITY   = .00915677
INCLINATION    = 97.3069
RA_OF_ASC_NODE = 98.9533
ARG_OF_PERICENTER = 109.5065
MEAN_ANOMALY   = 251.6079

EPHEMERIS_TYPE = 0
CLASSIFICATION_TYPE = U
NORAD_CAT_ID   = 67255
ELEMENT_SET_NO = 999
REV_AT_EPOCH   = 381
BSTAR          = .25129154E-3
MEAN_MOTION_DOT = .3567E-4
MEAN_MOTION_DDOT = 0

