HULIANWANG DIGUI-136    
1 67244U 25311J   26019.52180883  .00000012  00000+0  13236-3 0  9998
2 67244  50.0106 298.0118 0000453 348.0623  12.0264 13.87669700  3425
CZ-8A R/B               
1 67245U 25311K   26022.96527633  .00000160  00000+0  16295-3 0  9991
2 67245  50.0030 280.1958 0088973 178.3968 181.7242 14.12608667  3968
FENGYUN 4C              
1 67246U 25312A   26022.88827340 -.00000308  00000+0  00000+0 0  9990
2 67246   0.0556 240.9296 0002059  49.7282 284.2914  1.00271451   329
CZ-3B R/B               
1 67247U 25312B   26022.25249719  .00400967  11962-5  93661-3 0  9998
2 67247  28.3909 323.6604 7181127 196.3319 115.3056  2.47467165   645
2025-313A               
1 67248U 25313A   26022.98535118  .00002526  00000+0  25512-3 0  9995
2 67248  97.5613  98.5576 0280533  83.2482 280.0559 14.66831807  3734
2025-313B               
1 67249U 25313B   26022.94433368  .00004658  00000+0  35657-3 0  9995
2 67249  97.5301  98.6507 0297619  87.2964 276.2269 14.73277254  3740
2025-313C               
1 67250U 25313C   26022.95329246  .00018068  00000+0  16722-2 0  9998
2 67250  97.6340  99.4214 0162136  96.9026 265.0664 14.85040579  3770
2025-313D               
1 67251U 25313D   26022.94898409  .00004414  00000+0  38436-3 0  9997
2 67251  97.5856  99.4042 0152395  89.4951 272.3727 14.88812805  3785
ZORKIY-2M-VPE           
1 67252U 25313E   26022.93030826  .00009211  00000+0  40757-3 0  9997
2 67252  97.4095 100.0090 0011613 131.0800 229.1441 15.21831256  3867
AIST-2T 1               
1 67253U 25313F   26022.93823890  .00061255  00000+0  59220-3 0  9990
2 67253  97.1011 100.3354 0010559 147.5410 212.6502 15.66183629  3954
AIST-2T 2               
1 67254U 25313G   26022.87823468  .00034568  00000+0  35588-3 0  9993
2 67254  97.1008 100.2655 0008856 169.2638 190.8813 15.64735275  3932
2025-313H               
1 67255U 25313H   26022.92300888  .00003567  00000+0  25129-3 0  9991
2 67255  97.3069  98.9533 0091567 109.5065 251.6079 15.02229010  3816
